{
  "type": "FeatureCollection",
  "features": [
    {
      "type": "Feature",
      "properties": {
        "norad_id": 37781,
        "name": "HAIYANG-2A",
        "group": "resource",
        "lat": -9.365231945233543,
        "lon": 159.19229681019814,
        "alt_km": 972.1195653470722,
        "timestamp": "2025-12-05T16:54:14.326648+00:00",
        "meta_object_name": "HAIYANG-2A",
        "meta_object_id": "2011-043A",
        "meta_epoch": "2025-12-05T07:16:51.472128",
        "meta_mean_motion": 13.78834461,
        "meta_eccentricity": 0.0001649,
        "meta_inclination": 99.3377,
        "meta_ra_of_asc_node": 340.3525,
        "meta_arg_of_pericenter": 94.7219,
        "meta_mean_anomaly": 265.4121,
        "meta_ephemeris_type": 0,
        "meta_classification_type": "U",
        "meta_norad_cat_id": 37781,
        "meta_element_set_no": 999,
        "meta_rev_at_epoch": 71996,
        "meta_bstar": 5.9933426e-05,
        "meta_mean_motion_dot": 1.7e-07,
        "meta_mean_motion_ddot": 0,
        "tle_line1": "1 37781U 11043A   25339.30337352  .00000017  00000+0  59933-4 0  9993",
        "tle_line2": "2 37781  99.3377 340.3525 0001649  94.7219 265.4121 13.78834461719968"
      },
      "geometry": {
        "type": "Point",
        "coordinates": [
          159.19229681019814,
          -9.365231945233543
        ]
      }
    },
    {
      "type": "Feature",
      "properties": {
        "norad_id": 37791,
        "name": "RASAT",
        "group": "resource",
        "lat": -33.83534249916298,
        "lon": -116.3879917403583,
        "alt_km": 683.4911642466568,
        "timestamp": "2025-12-05T16:54:14.326657+00:00",
        "meta_object_name": "RASAT",
        "meta_object_id": "2011-044D",
        "meta_epoch": "2025-12-05T06:29:56.904864",
        "meta_mean_motion": 14.67893289,
        "meta_eccentricity": 0.00219475,
        "meta_inclination": 98.0655,
        "meta_ra_of_asc_node": 68.6394,
        "meta_arg_of_pericenter": 87.5241,
        "meta_mean_anomaly": 356.7864,
        "meta_ephemeris_type": 0,
        "meta_classification_type": "U",
        "meta_norad_cat_id": 37791,
        "meta_element_set_no": 999,
        "meta_rev_at_epoch": 76473,
        "meta_bstar": 0.00022826419,
        "meta_mean_motion_dot": 1.261e-05,
        "meta_mean_motion_ddot": 0,
        "tle_line1": "1 37791U 11044D   25339.27079751  .00001261  00000+0  22826-3 0  9999",
        "tle_line2": "2 37791  98.0655  68.6394 0021947  87.5241 356.7864 14.67893289764731"
      },
      "geometry": {
        "type": "Point",
        "coordinates": [
          -116.3879917403583,
          -33.83534249916298
        ]
      }
    },
    {
      "type": "Feature",
      "properties": {
        "norad_id": 37841,
        "name": "SRMSAT",
        "group": "resource",
        "lat": -18.333969969620934,
        "lon": 36.39365730393542,
        "alt_km": 845.6501359033682,
        "timestamp": "2025-12-05T16:54:14.326666+00:00",
        "meta_object_name": "SRMSAT",
        "meta_object_id": "2011-058D",
        "meta_epoch": "2025-12-04T16:21:06.385824",
        "meta_mean_motion": 14.11507205,
        "meta_eccentricity": 0.0011717,
        "meta_inclination": 19.9698,
        "meta_ra_of_asc_node": 156.7245,
        "meta_arg_of_pericenter": 224.0627,
        "meta_mean_anomaly": 213.4569,
        "meta_ephemeris_type": 0,
        "meta_classification_type": "U",
        "meta_norad_cat_id": 37841,
        "meta_element_set_no": 999,
        "meta_rev_at_epoch": 73030,
        "meta_bstar": 0.00015376,
        "meta_mean_motion_dot": 5.48e-06,
        "meta_mean_motion_ddot": 0,
        "tle_line1": "1 37841U 11058D   25338.68132391  .00000548  00000+0  15376-3 0  9993",
        "tle_line2": "2 37841  19.9698 156.7245 0011717 224.0627 213.4569 14.11507205730306"
      },
      "geometry": {
        "type": "Point",
        "coordinates": [
          36.39365730393542,
          -18.333969969620934
        ]
      }
    },
    {
      "type": "Feature",
      "properties": {
        "norad_id": 38012,
        "name": "PLEIADES 1A",
        "group": "resource",
        "lat": -64.16808566163554,
        "lon": -144.7109012479658,
        "alt_km": 706.008998538442,
        "timestamp": "2025-12-05T16:54:14.326675+00:00",
        "meta_object_name": "PLEIADES 1A",
        "meta_object_id": "2011-076F",
        "meta_epoch": "2025-12-05T06:19:31.482912",
        "meta_mean_motion": 14.58550333,
        "meta_eccentricity": 0.0001381,
        "meta_inclination": 98.1832,
        "meta_ra_of_asc_node": 52.1473,
        "meta_arg_of_pericenter": 80.4562,
        "meta_mean_anomaly": 11.8659,
        "meta_ephemeris_type": 0,
        "meta_classification_type": "U",
        "meta_norad_cat_id": 38012,
        "meta_element_set_no": 999,
        "meta_rev_at_epoch": 74372,
        "meta_bstar": 0.00019350762,
        "meta_mean_motion_dot": 8.54e-06,
        "meta_mean_motion_ddot": 0,
        "tle_line1": "1 38012U 11076F   25339.26355883  .00000854  00000+0  19351-3 0  9999",
        "tle_line2": "2 38012  98.1832  52.1473 0001381  80.4562  11.8659 14.58550333743727"
      },
      "geometry": {
        "type": "Point",
        "coordinates": [
          -144.7109012479658,
          -64.16808566163554
        ]
      }
    },
    {
      "type": "Feature",
      "properties": {
        "norad_id": 38038,
        "name": "ZIYUAN 1-02C (ZY 1-02C)",
        "group": "resource",
        "lat": -46.61256075050386,
        "lon": 54.87875927086141,
        "alt_km": 776.3174947052512,
        "timestamp": "2025-12-05T16:54:14.326684+00:00",
        "meta_object_name": "ZIYUAN 1-02C (ZY 1-02C)",
        "meta_object_id": "2011-079A",
        "meta_epoch": "2025-12-05T07:30:42.596064",
        "meta_mean_motion": 14.37999415,
        "meta_eccentricity": 0.0006867,
        "meta_inclination": 98.4344,
        "meta_ra_of_asc_node": 45.4634,
        "meta_arg_of_pericenter": 159.059,
        "meta_mean_anomaly": 288.9981,
        "meta_ephemeris_type": 0,
        "meta_classification_type": "U",
        "meta_norad_cat_id": 38038,
        "meta_element_set_no": 999,
        "meta_rev_at_epoch": 73134,
        "meta_bstar": 0.00033786436,
        "meta_mean_motion_dot": 9.79e-06,
        "meta_mean_motion_ddot": 0,
        "tle_line1": "1 38038U 11079A   25339.31299301  .00000979  00000+0  33786-3 0  9994",
        "tle_line2": "2 38038  98.4344  45.4634 0006867 159.0590 288.9981 14.37999415731343"
      },
      "geometry": {
        "type": "Point",
        "coordinates": [
          54.87875927086141,
          -46.61256075050386
        ]
      }
    },
    {
      "type": "Feature",
      "properties": {
        "norad_id": 38046,
        "name": "ZIYUAN 3-1 (ZY 3-1)",
        "group": "resource",
        "lat": 63.0268082096708,
        "lon": 31.62840324697161,
        "alt_km": 359.6172038956247,
        "timestamp": "2025-12-05T16:54:14.326694+00:00",
        "meta_object_name": "ZIYUAN 3-1 (ZY 3-1)",
        "meta_object_id": "2012-001A",
        "meta_epoch": "2025-12-05T07:26:16.389024",
        "meta_mean_motion": 15.67184414,
        "meta_eccentricity": 0.00020633,
        "meta_inclination": 97.1772,
        "meta_ra_of_asc_node": 45.5614,
        "meta_arg_of_pericenter": 24.1219,
        "meta_mean_anomaly": 336.0138,
        "meta_ephemeris_type": 0,
        "meta_classification_type": "U",
        "meta_norad_cat_id": 38046,
        "meta_element_set_no": 999,
        "meta_rev_at_epoch": 77380,
        "meta_bstar": 0.000860306,
        "meta_mean_motion_dot": 0.00092785,
        "meta_mean_motion_ddot": 0,
        "tle_line1": "1 38046U 12001A   25339.30991191  .00092785  00000+0  86031-3 0  9991",
        "tle_line2": "2 38046  97.1772  45.5614 0002063  24.1219 336.0138 15.67184414773801"
      },
      "geometry": {
        "type": "Point",
        "coordinates": [
          31.62840324697161,
          63.0268082096708
        ]
      }
    },
    {
      "type": "Feature",
      "properties": {
        "norad_id": 38338,
        "name": "ARIRANG-3 (KOMPSAT-3)",
        "group": "resource",
        "lat": 61.87353310562023,
        "lon": -81.6692242817819,
        "alt_km": 679.6938556077166,
        "timestamp": "2025-12-05T16:54:14.326703+00:00",
        "meta_object_name": "ARIRANG-3 (KOMPSAT-3)",
        "meta_object_id": "2012-025B",
        "meta_epoch": "2025-12-05T06:45:34.199712",
        "meta_mean_motion": 14.61697087,
        "meta_eccentricity": 0.00058894,
        "meta_inclination": 98.3311,
        "meta_ra_of_asc_node": 293.8153,
        "meta_arg_of_pericenter": 2.596,
        "meta_mean_anomaly": 357.527,
        "meta_ephemeris_type": 0,
        "meta_classification_type": "U",
        "meta_norad_cat_id": 38338,
        "meta_element_set_no": 999,
        "meta_rev_at_epoch": 72301,
        "meta_bstar": 0.0002405777,
        "meta_mean_motion_dot": 1.15e-05,
        "meta_mean_motion_ddot": 0,
        "tle_line1": "1 38338U 12025B   25339.28164583  .00001150  00000+0  24058-3 0  9992",
        "tle_line2": "2 38338  98.3311 293.8153 0005889   2.5960 357.5270 14.61697087723016"
      },
      "geometry": {
        "type": "Point",
        "coordinates": [
          -81.6692242817819,
          61.87353310562023
        ]
      }
    }
  ]
}